     2.100          NAVIGATION                              RINEX VERSION / TYPE
fic2rin                                 03/02/2018 00:04:49 PGM / RUN BY / DATE
                                                            END OF HEADER
31 18  3  1 22  0  0.0  .138346571475D-03 -.261479726760D-11  .000000000000D+00
     .360000000000D+02 -.475937500000D+02  .511771317330D-08 -.219036952797D+01
    -.253692269325D-05  .880706112366D-02  .513158738613D-05  .515360731697D+04
     .424800000000D+06 -.163912773132D-06  .204639252897D+01 -.143423676491D-06
     .963705237140D+00  .285843750000D+03 -.146697122547D+00 -.839570685775D-08
    -.350014579512D-09  .100000000000D+01  .199000000000D+04  .000000000000D+00
     .240000000000D+01  .000000000000D+00 -.135041773319D-07  .360000000000D+02
     .417606000000D+06  .400000000000D+01
32 18  3  1 22  0  0.0 -.530536286533D-03  .159161572810D-11  .000000000000D+00
     .112000000000D+03  .645312500000D+02  .477984195675D-08  .167712582391D+01
     .332854688168D-05  .174437090755D-02  .848993659019D-05  .515363982773D+04
     .424800000000D+06  .558793544769D-08  .960291356881D+00  .577419996262D-07
     .957273877682D+00  .209031250000D+03 -.267548920395D+01 -.825070081766D-08
     .777175229611D-09  .100000000000D+01  .199000000000D+04  .000000000000D+00
     .240000000000D+01  .000000000000D+00  .465661287308D-09  .112000000000D+03
     .417606000000D+06  .400000000000D+01
24 18  3  1 21 59 44.0 -.467216596007D-04 -.568434188608D-12  .000000000000D+00
     .740000000000D+02 -.408125000000D+02  .559844748352D-08 -.106037250706D+01
    -.208988785744D-05  .684665190056D-02  .418536365032D-05  .515364511108D+04
     .424784000000D+06  .124797224998D-06  .197597930916D+01  .372529029846D-08
     .942057554718D+00  .286843750000D+03  .532574820588D+00 -.869607651221D-08
    -.264653881039D-09  .100000000000D+01  .199000000000D+04  .000000000000D+00
     .240000000000D+01  .000000000000D+00  .279396772385D-08  .740000000000D+02
     .418386000000D+06  .400000000000D+01
11 18  3  1 21 58 56.0 -.736947637051D-03 -.454747350886D-12  .000000000000D+00
     .740000000000D+02  .333750000000D+02  .612668377240D-08 -.203167932547D+01
     .201538205147D-05  .167313750135D-01 -.106170773506D-06  .515361314774D+04
     .424736000000D+06  .216066837311D-06 -.154239055387D+01  .359490513802D-06
     .903931694715D+00  .350125000000D+03  .174053727787D+01 -.906144887429D-08
     .214294640518D-11  .100000000000D+01  .199000000000D+04  .000000000000D+00
     .340000000000D+01  .000000000000D+00 -.121071934700D-07  .740000000000D+02
     .421206000000D+06  .400000000000D+01
 7 18  3  1 21 59 44.0  .229419674724D-03 -.568434188608D-11  .000000000000D+00
     .000000000000D+00 -.498125000000D+02  .510306970619D-08 -.198929770511D+01
    -.279024243355D-05  .112213683315D-01  .445358455181D-05  .515367857170D+04
     .424784000000D+06  .165775418282D-06  .203425395157D+01 -.912696123123D-07
     .959022961556D+00  .290125000000D+03 -.254384530802D+01 -.837356307823D-08
    -.174650132022D-09  .100000000000D+01  .199000000000D+04  .000000000000D+00
     .240000000000D+01  .000000000000D+00 -.111758708954D-07  .000000000000D+00
     .423456000000D+06  .400000000000D+01
11 18  3  1 23 58 56.0 -.736951362342D-03 -.454747350886D-12  .000000000000D+00
     .750000000000D+02  .303437500000D+02  .655598736890D-08 -.981561196821D+00
     .181980431080D-05  .167314207647D-01  .687316060066D-06  .515360953712D+04
     .431936000000D+06 -.337138772011D-06 -.154245902575D+01  .577419996262D-07
     .903929231161D+00  .336781250000D+03  .174065197943D+01 -.971076163506D-08
     .989326923723D-10  .100000000000D+01  .199000000000D+04  .000000000000D+00
     .340000000000D+01  .000000000000D+00 -.121071934700D-07  .750000000000D+02
     .424806000000D+06  .400000000000D+01
 7 18  3  1 23 59 44.0  .229378696531D-03 -.568434188608D-11  .000000000000D+00
     .350000000000D+02 -.391250000000D+02  .514735726523D-08 -.939256163149D+00
    -.191293656826D-05  .112213180400D-01  .419653952122D-05  .515367556000D+04
     .431984000000D+06  .260770320892D-06  .203419399388D+01  .108033418655D-06
     .959021046596D+00  .293781250000D+03 -.254370399013D+01 -.851249743683D-08
    -.262868092368D-09  .100000000000D+01  .199000000000D+04  .000000000000D+00
     .240000000000D+01  .000000000000D+00 -.111758708954D-07  .350000000000D+02
     .424806000000D+06  .400000000000D+01
24 18  3  1 23 59 44.0 -.467258505523D-04 -.568434188608D-12  .000000000000D+00
     .750000000000D+02 -.390312500000D+02  .557630370400D-08 -.100909207159D-01
    -.198185443878D-05  .684777437709D-02  .391900539398D-05  .515364746284D+04
     .431984000000D+06  .298023223877D-07  .197591634370D+01  .502914190292D-07
     .942055155533D+00  .295531250000D+03  .532498740070D+00 -.879679499325D-08
    -.275368613065D-09  .100000000000D+01  .199000000000D+04  .000000000000D+00
     .240000000000D+01  .000000000000D+00  .279396772385D-08  .750000000000D+02
     .424806000000D+06  .400000000000D+01
 1 18  3  2  0  0  0.0 -.316551886499D-04 -.216004991671D-11  .000000000000D+00
     .660000000000D+02 -.655625000000D+02  .483270130141D-08 -.247343607174D+00
    -.345334410667D-05  .740695919376D-02  .187009572983D-05  .515366962814D+04
     .432000000000D+06  .316649675369D-07 -.112102863674D+01  .134110450745D-06
     .970054029501D+00  .344968750000D+03  .611254861721D+00 -.870107672049D-08
    -.415731602604D-09  .100000000000D+01  .199000000000D+04  .000000000000D+00
     .340000000000D+01  .000000000000D+00  .558793544769D-08  .660000000000D+02
     .424806000000D+06  .400000000000D+01
 2 18  3  2  0  0  0.0  .186244025826D-03 -.108002495836D-10  .000000000000D+00
     .290000000000D+02 -.470312500000D+02  .527236247220D-08  .124850633947D+00
    -.241398811340D-05  .178412393434D-01  .220723450184D-05  .515368601036D+04
     .432000000000D+06 -.238418579102D-06 -.118034500848D+01  .139698386192D-06
     .949062865215D+00  .333781250000D+03 -.188621898020D+01 -.905394856187D-08
    -.336799743347D-09  .100000000000D+01  .199000000000D+04  .000000000000D+00
     .240000000000D+01  .000000000000D+00 -.204890966415D-07  .290000000000D+02
     .424806000000D+06  .400000000000D+01
 3 18  3  2  0  0  0.0  .196667388082D-04  .795807864051D-11  .000000000000D+00
     .670000000000D+02 -.987500000000D+02  .407516974718D-08 -.111740299762D+01
    -.511482357979D-05  .121407897677D-02  .133756548166D-04  .515356058884D+04
     .432000000000D+06  .100582838058D-06 -.782556105631D-01 -.447034835815D-07
     .961248329131D+00  .123718750000D+03  .450189333770D+00 -.784782689349D-08
    -.209651589973D-09  .100000000000D+01  .199000000000D+04  .000000000000D+00
     .240000000000D+01  .000000000000D+00  .232830643654D-08  .670000000000D+02
     .424806000000D+06  .400000000000D+01
 4 18  3  2  0  0  0.0  .417651608586D-04  .284217094304D-11  .000000000000D+00
     .580000000000D+02  .189687500000D+02  .503378110576D-08 -.312617731964D+01
     .789761543274D-06  .964090542402D-02  .147242099047D-04  .515368970299D+04
     .432000000000D+06  .260770320892D-07  .309045014204D+01 -.206753611565D-06
     .980189352707D+00  .104437500000D+03  .897943593584D+00 -.745995359415D-08
    -.351086052715D-09  .100000000000D+01  .199000000000D+04  .000000000000D+00
     .340000000000D+01  .630000000000D+02 -.195577740669D-07  .580000000000D+02
     .424806000000D+06  .400000000000D+01
 5 18  3  2  0  0  0.0 -.130990520120D-04  .909494701773D-12  .000000000000D+00
     .420000000000D+02 -.810000000000D+02  .440661212451D-08  .272955784717D+01
    -.422634184361D-05  .528815039434D-02  .122077763081D-04  .515366292381D+04
     .432000000000D+06  .186264514923D-08 -.988759690038D-01 -.521540641785D-07
     .948144989450D+00  .139218750000D+03  .619225513822D+00 -.794890253227D-08
    -.122147945095D-09  .100000000000D+01  .199000000000D+04  .000000000000D+00
     .240000000000D+01  .000000000000D+00 -.107102096081D-07  .420000000000D+02
     .424806000000D+06  .400000000000D+01
 6 18  3  2  0  0  0.0  .413665082306D-03 -.795807864051D-12  .000000000000D+00
     .260000000000D+02 -.626250000000D+02  .467626621383D-08 -.224330953428D-01
    -.324472784996D-05  .115490902681D-02  .214949250221D-05  .515357711220D+04
     .432000000000D+06 -.186264514923D-08 -.112936761065D+01 -.335276126862D-07
     .969780845642D+00  .344531250000D+03 -.120089903676D+01 -.847606734794D-08
    -.347514475373D-09  .100000000000D+01  .199000000000D+04  .000000000000D+00
     .240000000000D+01  .000000000000D+00  .465661287308D-08  .260000000000D+02
     .424806000000D+06  .400000000000D+01
 8 18  3  2  0  0  0.0 -.929380767047D-04 -.136424205266D-11  .000000000000D+00
     .340000000000D+02  .131562500000D+03  .453233164695D-08  .229316102208D+01
     .706315040588D-05  .338710611686D-02  .732950866222D-05  .515377397156D+04
     .432000000000D+06  .119209289551D-06 -.218594277736D+01  .633299350739D-07
     .968678624644D+00  .240562500000D+03 -.530760453995D+00 -.826070123422D-08
     .451447376024D-09  .100000000000D+01  .199000000000D+04  .000000000000D+00
     .240000000000D+01  .000000000000D+00  .558793544769D-08  .340000000000D+02
     .424806000000D+06  .400000000000D+01
 9 18  3  2  0  0  0.0  .504237134010D-03  .227373675443D-11  .000000000000D+00
     .810000000000D+02  .608125000000D+02  .476305554324D-08  .215284254713D+01
     .321492552757D-05  .114489113912D-02  .863894820213D-05  .515366973877D+04
     .432000000000D+06  .223517417908D-07  .955681589369D+00 -.931322574615D-08
     .952877134449D+00  .208218750000D+03  .176823153719D+01 -.817498337801D-08
     .715744099329D-09  .100000000000D+01  .199000000000D+04  .000000000000D+00
     .240000000000D+01  .000000000000D+00  .139698386192D-08  .810000000000D+02
     .424806000000D+06  .400000000000D+01
